start=new Date('2021-12-10T00:00:00.000Z').valueOf();
sats=[{"MEAN_MOTION_DDOT":"0.0000000000000","RA_OF_ASC_NODE":"223.2083","FILE":"3236488","NORAD_CAT_ID":"48334","RCS_SIZE":"LARGE","MEAN_MOTION":"15.06392395","COUNTRY_CODE":"US","APOAPSIS":"548.670","PERIAPSIS":"545.804","INCLINATION":"53.0532","OBJECT_NAME":"STARLINK-2470","OBJECT_TYPE":"PAYLOAD","MEAN_ANOMALY":"285.9923","MEAN_ELEMENT_THEORY":"SGP4","SEMIMAJOR_AXIS":"6925.372","REF_FRAME":"TEME","GP_ID":"191399830","ELEMENT_SET_NO":"999","BSTAR":"0.00003870200000","CLASSIFICATION_TYPE":"U","MEAN_MOTION_DOT":"0.00000295","LAUNCH_DATE":"2021-04-29","OBJECT_ID":"2021-036BL","TIME_SYSTEM":"UTC","DECAY_DATE":null,"TLE_LINE1":"1 48334U 21036BL  21343.94044880  .00000295  00000-0  38702-4 0  9994","SITE":"AFETR","TLE_LINE2":"2 48334  53.0532 223.2083 0002069  74.1294 285.9923 15.06392395 34307","CENTER_NAME":"EARTH","REV_AT_EPOCH":"3430","ECCENTRICITY":"0.00020690","ARG_OF_PERICENTER":"74.1294","EPHEMERIS_TYPE":"0","PERIOD":"95.593","EPOCH":"2021-12-09T22:34:14.776320"},{"COUNTRY_CODE":"US","RCS_SIZE":"LARGE","MEAN_MOTION":"15.06394213","NORAD_CAT_ID":"48335","FILE":"3236488","MEAN_MOTION_DDOT":"0.0000000000000","RA_OF_ASC_NODE":"224.4174","REF_FRAME":"TEME","MEAN_ELEMENT_THEORY":"SGP4","SEMIMAJOR_AXIS":"6925.366","MEAN_ANOMALY":"289.6922","OBJECT_TYPE":"PAYLOAD","APOAPSIS":"548.828","PERIAPSIS":"545.634","OBJECT_NAME":"STARLINK-2441","INCLINATION":"53.0544","OBJECT_ID":"2021-036BM","LAUNCH_DATE":"2021-04-29","TIME_SYSTEM":"UTC","MEAN_MOTION_DOT":"0.00000674","GP_ID":"191398578","ELEMENT_SET_NO":"999","BSTAR":"0.00006420500000","CLASSIFICATION_TYPE":"U","EPOCH":"2021-12-09T16:06:47.006496","PERIOD":"95.593","EPHEMERIS_TYPE":"0","ECCENTRICITY":"0.00023060","ARG_OF_PERICENTER":"70.4316","DECAY_DATE":null,"TLE_LINE1":"1 48335U 21036BM  21343.67137739  .00000674  00000-0  64205-4 0  9999","SITE":"AFETR","CENTER_NAME":"EARTH","TLE_LINE2":"2 48335  53.0544 224.4174 0002306  70.4316 289.6922 15.06394213 34269","REV_AT_EPOCH":"3426"},{"MEAN_ELEMENT_THEORY":"SGP4","SEMIMAJOR_AXIS":"6925.354","REF_FRAME":"TEME","APOAPSIS":"548.409","PERIAPSIS":"546.029","OBJECT_NAME":"STARLINK-2613","INCLINATION":"53.0545","MEAN_ANOMALY":"260.9677","OBJECT_TYPE":"PAYLOAD","MEAN_MOTION":"15.06398270","RCS_SIZE":"LARGE","COUNTRY_CODE":"US","MEAN_MOTION_DDOT":"0.0000000000000","RA_OF_ASC_NODE":"123.7959","FILE":"3236488","NORAD_CAT_ID":"48353","EPHEMERIS_TYPE":"0","EPOCH":"2021-12-09T19:25:51.084192","PERIOD":"95.592","DECAY_DATE":null,"TLE_LINE1":"1 48353U 21038A   21343.80961903  .00000633  00000-0  61412-4 0  9996","SITE":"AFETR","TLE_LINE2":"2 48353  53.0545 123.7959 0001718  99.1507 260.9677 15.06398270 33274","CENTER_NAME":"EARTH","REV_AT_EPOCH":"3327","ECCENTRICITY":"0.00017180","ARG_OF_PERICENTER":"99.1507","MEAN_MOTION_DOT":"0.00000633","OBJECT_ID":"2021-038A","LAUNCH_DATE":"2021-05-04","TIME_SYSTEM":"UTC","GP_ID":"191399082","ELEMENT_SET_NO":"999","BSTAR":"0.00006141200000","CLASSIFICATION_TYPE":"U"},{"MEAN_MOTION_DDOT":"0.0000000000000","RA_OF_ASC_NODE":"123.8017","NORAD_CAT_ID":"48354","FILE":"3236488","MEAN_MOTION":"15.06396651","RCS_SIZE":"LARGE","COUNTRY_CODE":"US","APOAPSIS":"548.547","PERIAPSIS":"545.901","INCLINATION":"53.0551","OBJECT_NAME":"STARLINK-2674","MEAN_ANOMALY":"269.2771","OBJECT_TYPE":"PAYLOAD","MEAN_ELEMENT_THEORY":"SGP4","SEMIMAJOR_AXIS":"6925.359","REF_FRAME":"TEME","GP_ID":"191399832","ELEMENT_SET_NO":"999","BSTAR":"0.00005404800000","CLASSIFICATION_TYPE":"U","MEAN_MOTION_DOT":"0.00000523","OBJECT_ID":"2021-038B","LAUNCH_DATE":"2021-05-04","TIME_SYSTEM":"UTC","DECAY_DATE":null,"TLE_LINE1":"1 48354U 21038B   21343.80591336  .00000523  00000-0  54048-4 0  9991","SITE":"AFETR","CENTER_NAME":"EARTH","TLE_LINE2":"2 48354  53.0551 123.8017 0001910  90.8437 269.2771 15.06396651 33270","REV_AT_EPOCH":"3327","ECCENTRICITY":"0.00019100","ARG_OF_PERICENTER":"90.8437","EPHEMERIS_TYPE":"0","PERIOD":"95.592","EPOCH":"2021-12-09T19:20:30.914304"},{"CLASSIFICATION_TYPE":"U","BSTAR":"0.00006664300000","ELEMENT_SET_NO":"999","GP_ID":"191398580","TIME_SYSTEM":"UTC","LAUNCH_DATE":"2021-05-04","OBJECT_ID":"2021-038C","MEAN_MOTION_DOT":"0.00000711","ARG_OF_PERICENTER":"96.6490","ECCENTRICITY":"0.00019910","REV_AT_EPOCH":"3327","TLE_LINE2":"2 48355  53.0559 123.8281 0001991  96.6490 263.4725 15.06398958 33271","CENTER_NAME":"EARTH","SITE":"AFETR","TLE_LINE1":"1 48355U 21038C   21343.80222745  .00000711  00000-0  66643-4 0  9990","DECAY_DATE":null,"EPOCH":"2021-12-09T19:15:12.451680","PERIOD":"95.592","EPHEMERIS_TYPE":"0","NORAD_CAT_ID":"48355","FILE":"3236488","RA_OF_ASC_NODE":"123.8281","MEAN_MOTION_DDOT":"0.0000000000000","COUNTRY_CODE":"US","MEAN_MOTION":"15.06398958","RCS_SIZE":"LARGE","MEAN_ANOMALY":"263.4725","OBJECT_TYPE":"PAYLOAD","OBJECT_NAME":"STARLINK-2635","INCLINATION":"53.0559","APOAPSIS":"548.596","PERIAPSIS":"545.838","REF_FRAME":"TEME","SEMIMAJOR_AXIS":"6925.352","MEAN_ELEMENT_THEORY":"SGP4"},{"PERIOD":"95.592","EPOCH":"2021-12-09T19:09:54.321696","EPHEMERIS_TYPE":"0","ARG_OF_PERICENTER":"94.6569","ECCENTRICITY":"0.00022960","CENTER_NAME":"EARTH","TLE_LINE2":"2 48356  53.0608 123.8291 0002296  94.6569 265.4682 15.06396517 33275","REV_AT_EPOCH":"3327","SITE":"AFETR","TLE_LINE1":"1 48356U 21038D   21343.79854539  .00000826  00000-0  74400-4 0  9998","DECAY_DATE":null,"TIME_SYSTEM":"UTC","OBJECT_ID":"2021-038D","LAUNCH_DATE":"2021-05-04","MEAN_MOTION_DOT":"0.00000826","CLASSIFICATION_TYPE":"U","BSTAR":"0.00007440000000","ELEMENT_SET_NO":"999","GP_ID":"191398331","REF_FRAME":"TEME","SEMIMAJOR_AXIS":"6925.359","MEAN_ELEMENT_THEORY":"SGP4","MEAN_ANOMALY":"265.4682","OBJECT_TYPE":"PAYLOAD","INCLINATION":"53.0608","OBJECT_NAME":"STARLINK-2637","APOAPSIS":"548.814","PERIAPSIS":"545.634","COUNTRY_CODE":"US","MEAN_MOTION":"15.06396517","RCS_SIZE":"LARGE","FILE":"3236488","NORAD_CAT_ID":"48356","RA_OF_ASC_NODE":"123.8291","MEAN_MOTION_DDOT":"0.0000000000000"},{"DECAY_DATE":null,"REV_AT_EPOCH":"3327","TLE_LINE2":"2 48357  53.0550 123.8504 0001760  99.1326 260.9862 15.06395865 33270","CENTER_NAME":"EARTH","TLE_LINE1":"1 48357U 21038E   21343.79485253 -.00001158  00000-0 -58860-4 0  9995","SITE":"AFETR","ECCENTRICITY":"0.00017600","ARG_OF_PERICENTER":"99.1326","EPHEMERIS_TYPE":"0","PERIOD":"95.592","EPOCH":"2021-12-09T19:04:35.258592","ELEMENT_SET_NO":"999","GP_ID":"191399582","CLASSIFICATION_TYPE":"U","BSTAR":"-0.00005886000000","MEAN_MOTION_DOT":"-0.00001158","OBJECT_ID":"2021-038E","LAUNCH_DATE":"2021-05-04","TIME_SYSTEM":"UTC","PERIAPSIS":"546.007","APOAPSIS":"548.445","OBJECT_NAME":"STARLINK-2636","INCLINATION":"53.0550","OBJECT_TYPE":"PAYLOAD","MEAN_ANOMALY":"260.9862","MEAN_ELEMENT_THEORY":"SGP4","SEMIMAJOR_AXIS":"6925.361","REF_FRAME":"TEME","RA_OF_ASC_NODE":"123.8504","MEAN_MOTION_DDOT":"0.0000000000000","NORAD_CAT_ID":"48357","FILE":"3236488","RCS_SIZE":"LARGE","MEAN_MOTION":"15.06395865","COUNTRY_CODE":"US"},{"OBJECT_ID":"2021-038F","LAUNCH_DATE":"2021-05-04","TIME_SYSTEM":"UTC","MEAN_MOTION_DOT":"0.00000645","ELEMENT_SET_NO":"999","GP_ID":"191399333","CLASSIFICATION_TYPE":"U","BSTAR":"0.00006221200000","EPOCH":"2021-12-09T18:59:16.867680","PERIOD":"95.592","EPHEMERIS_TYPE":"0","ECCENTRICITY":"0.00019690","ARG_OF_PERICENTER":"95.4787","DECAY_DATE":null,"CENTER_NAME":"EARTH","TLE_LINE2":"2 48358  53.0540 123.8650 0001969  95.4787 264.6426 15.06398013 33267","REV_AT_EPOCH":"3326","TLE_LINE1":"1 48358U 21038F   21343.79116745  .00000645  00000-0  62212-4 0  9997","SITE":"AFETR","COUNTRY_CODE":"US","RCS_SIZE":"LARGE","MEAN_MOTION":"15.06398013","NORAD_CAT_ID":"48358","FILE":"3236488","RA_OF_ASC_NODE":"123.8650","MEAN_MOTION_DDOT":"0.0000000000000","REF_FRAME":"TEME","MEAN_ELEMENT_THEORY":"SGP4","SEMIMAJOR_AXIS":"6925.355","OBJECT_TYPE":"PAYLOAD","MEAN_ANOMALY":"264.6426","PERIAPSIS":"545.856","APOAPSIS":"548.583","OBJECT_NAME":"STARLINK-2624","INCLINATION":"53.0540"},{"NORAD_CAT_ID":"48359","FILE":"3236488","MEAN_MOTION_DDOT":"0.0000000000000","RA_OF_ASC_NODE":"123.8849","COUNTRY_CODE":"US","RCS_SIZE":"LARGE","MEAN_MOTION":"15.06395479","MEAN_ANOMALY":"269.0617","OBJECT_TYPE":"PAYLOAD","INCLINATION":"53.0555","OBJECT_NAME":"STARLINK-2628","APOAPSIS":"548.480","PERIAPSIS":"545.975","REF_FRAME":"TEME","SEMIMAJOR_AXIS":"6925.362","MEAN_ELEMENT_THEORY":"SGP4","BSTAR":"-0.00003435000000","CLASSIFICATION_TYPE":"U","GP_ID":"191398081","ELEMENT_SET_NO":"999","TIME_SYSTEM":"UTC","LAUNCH_DATE":"2021-05-04","OBJECT_ID":"2021-038G","MEAN_MOTION_DOT":"-0.00000793","ARG_OF_PERICENTER":"91.0579","ECCENTRICITY":"0.00018090","TLE_LINE1":"1 48359U 21038G   21343.78748307 -.00000793  00000-0 -34350-4 0  9990","SITE":"AFETR","CENTER_NAME":"EARTH","TLE_LINE2":"2 48359  53.0555 123.8849 0001809  91.0579 269.0617 15.06395479 33262","REV_AT_EPOCH":"3326","DECAY_DATE":null,"EPOCH":"2021-12-09T18:53:58.537248","PERIOD":"95.592","EPHEMERIS_TYPE":"0"},{"MEAN_ANOMALY":"272.1897","OBJECT_TYPE":"PAYLOAD","OBJECT_NAME":"STARLINK-2622","INCLINATION":"53.0567","PERIAPSIS":"545.845","APOAPSIS":"548.635","REF_FRAME":"TEME","SEMIMAJOR_AXIS":"6925.375","MEAN_ELEMENT_THEORY":"SGP4","FILE":"3236488","NORAD_CAT_ID":"48360","RA_OF_ASC_NODE":"123.8915","MEAN_MOTION_DDOT":"0.0000000000000","COUNTRY_CODE":"US","RCS_SIZE":"LARGE","MEAN_MOTION":"15.06391286","ARG_OF_PERICENTER":"87.9323","ECCENTRICITY":"0.00020140","TLE_LINE2":"2 48360  53.0567 123.8915 0002014  87.9323 272.1897 15.06391286 33268","CENTER_NAME":"EARTH","REV_AT_EPOCH":"3326","SITE":"AFETR","TLE_LINE1":"1 48360U 21038H   21343.78380114  .00000852  00000-0  76140-4 0  9997","DECAY_DATE":null,"EPOCH":"2021-12-09T18:48:40.418496","PERIOD":"95.593","EPHEMERIS_TYPE":"0","CLASSIFICATION_TYPE":"U","BSTAR":"0.00007614000000","ELEMENT_SET_NO":"999","GP_ID":"191398831","TIME_SYSTEM":"UTC","LAUNCH_DATE":"2021-05-04","OBJECT_ID":"2021-038H","MEAN_MOTION_DOT":"0.00000852"}];
